ONEWEB-0309             
1 49095U 21075W   24074.80253169  .00000090  00000+0  19751-3 0  9997
2 49095  87.9259 169.8594 0001656 127.4754 232.6528 13.17648073125016
ONEWEB-0310             
1 49096U 21075X   24074.73084262  .00000201  00000+0  52312-3 0  9990
2 49096  87.9031 154.7644 0001631 106.0470 254.0839 13.12443836127048
ONEWEB-0311             
1 49097U 21075Y   24074.80886395  .00000023  00000+0  26463-4 0  9997
2 49097  87.9262 169.8593 0002358 112.6684 247.4697 13.17647612125063
ONEWEB-0312             
1 49098U 21075Z   24075.27872063  .00002053  00000+0  52544-2 0  9999
2 49098  87.9261 169.7987 0002099 124.2389 235.8942 13.17638565126086
ONEWEB-0313             
1 49099U 21075AA  24074.80095406  .00000002  00000+0 -27425-4 0  9991
2 49099  87.9265 169.8957 0002077 116.4077 243.7268 13.17646416125039
ONEWEB-0315             
1 49101U 21075AC  24074.78167581 -.00000457  00000+0 -13066-2 0  9995
2 49101  87.9026 154.7510 0001972 101.3577 258.7774 13.12442072127034
